[{"OBJECT_NAME":"ION SCV-008","OBJECT_ID":"2023-001AU","EPOCH":"2026-03-09T19:46:58.662912","MEAN_MOTION":15.2722664,"ECCENTRICITY":0.00151921,"INCLINATION":97.5676,"RA_OF_ASC_NODE":163.606,"ARG_OF_PERICENTER":8.542,"MEAN_ANOMALY":351.6074,"EPHEMERIS_TYPE":0,"CLASSIFICATION_TYPE":"U","NORAD_CAT_ID":55051,"ELEMENT_SET_NO":999,"REV_AT_EPOCH":17616,"BSTAR":0.00031422806,"MEAN_MOTION_DOT":8.336e-5,"MEAN_MOTION_DDOT":0},{"OBJECT_NAME":"STARLINK-33613","OBJECT_ID":"2025-053X","EPOCH":"2026-03-09T12:11:06.722016","MEAN_MOTION":15.27620712,"ECCENTRICITY":0.00013561,"INCLINATION":42.9944,"RA_OF_ASC_NODE":242.9737,"ARG_OF_PERICENTER":287.6156,"MEAN_ANOMALY":72.4548,"EPHEMERIS_TYPE":0,"CLASSIFICATION_TYPE":"U","NORAD_CAT_ID":63286,"ELEMENT_SET_NO":999,"REV_AT_EPOCH":5616,"BSTAR":0.00092726252,"MEAN_MOTION_DOT":0.00025374,"MEAN_MOTION_DDOT":0}]
